LIZZIESAT-2 (LS-2)      
1 62383U 24247G   26068.49140277  .00009388  00000+0  34517-3 0  9997
2 62383  44.9909 117.0823 0004092 327.5136  32.5495 15.28222796 67716
STARLINK-33644          
1 63414U 25065R   26068.81683483  .00021640  00000+0  79326-3 0  9991
2 63414  43.0030 106.8035 0002477 265.9603  94.0966 15.27593119 52851
